start=new Date('2021-09-02T00:00:00.000Z').valueOf();
sats=[{"LAUNCH_DATE":"2020-06-04","MEAN_MOTION_DOT":"0.00001068","FILE":"3107096","REF_FRAME":"TEME","MEAN_ELEMENT_THEORY":"SGP4","COUNTRY_CODE":"US","BSTAR":"0.00009059300000","GP_ID":"183924940","DECAY_DATE":null,"EPHEMERIS_TYPE":"0","NORAD_CAT_ID":"45710","OBJECT_ID":"2020-035BF","PERIAPSIS":"546.664","RA_OF_ASC_NODE":"243.0396","MEAN_ANOMALY":"292.3191","MEAN_MOTION":"15.06402244","SITE":"AFETR","CENTER_NAME":"EARTH","REV_AT_EPOCH":"7048","ELEMENT_SET_NO":"999","MEAN_MOTION_DDOT":"0.0000000000000","OBJECT_NAME":"STARLINK-1423","RCS_SIZE":"LARGE","INCLINATION":"53.0543","CLASSIFICATION_TYPE":"U","TIME_SYSTEM":"UTC","TLE_LINE1":"1 45710U 20035BF  21244.85179499  .00001068  00000-0  90593-4 0  9997","TLE_LINE2":"2 45710  53.0543 243.0396 0000783  67.7881 292.3191 15.06402244 70485","ARG_OF_PERICENTER":"67.7881","APOAPSIS":"547.749","SEMIMAJOR_AXIS":"6925.342","ECCENTRICITY":"0.00007830","EPOCH":"2021-09-01T20:26:35.087136","PERIOD":"95.592","OBJECT_TYPE":"PAYLOAD"},{"MEAN_ELEMENT_THEORY":"SGP4","COUNTRY_CODE":"US","GP_ID":"183854268","BSTAR":"0.00012181000000","LAUNCH_DATE":"2020-06-04","FILE":"3106871","REF_FRAME":"TEME","MEAN_MOTION_DOT":"0.00001534","PERIAPSIS":"546.525","MEAN_ANOMALY":"311.4167","RA_OF_ASC_NODE":"244.6092","DECAY_DATE":null,"EPHEMERIS_TYPE":"0","NORAD_CAT_ID":"45711","OBJECT_ID":"2020-035BG","RCS_SIZE":"LARGE","TLE_LINE2":"2 45711  53.0550 244.6092 0000968  48.6906 311.4167 15.06405985 70026","ARG_OF_PERICENTER":"48.6906","CLASSIFICATION_TYPE":"U","INCLINATION":"53.0550","TLE_LINE1":"1 45711U 20035BG  21244.50163224  .00001534  00000-0  12181-3 0  9993","TIME_SYSTEM":"UTC","MEAN_MOTION":"15.06405985","MEAN_MOTION_DDOT":"0.0000000000000","OBJECT_NAME":"STARLINK-1433","CENTER_NAME":"EARTH","SITE":"AFETR","REV_AT_EPOCH":"7002","ELEMENT_SET_NO":"999","ECCENTRICITY":"0.00009680","EPOCH":"2021-09-01T12:02:21.025536","OBJECT_TYPE":"PAYLOAD","PERIOD":"95.592","APOAPSIS":"547.866","SEMIMAJOR_AXIS":"6925.330"},{"PERIAPSIS":"546.657","RA_OF_ASC_NODE":"244.6258","MEAN_ANOMALY":"317.4652","DECAY_DATE":null,"EPHEMERIS_TYPE":"0","NORAD_CAT_ID":"45712","OBJECT_ID":"2020-035BH","MEAN_ELEMENT_THEORY":"SGP4","COUNTRY_CODE":"US","BSTAR":"0.00006793500000","GP_ID":"183853769","LAUNCH_DATE":"2020-06-04","MEAN_MOTION_DOT":"0.00000731","FILE":"3106871","REF_FRAME":"TEME","ECCENTRICITY":"0.00007980","EPOCH":"2021-09-01T11:57:02.744352","PERIOD":"95.592","OBJECT_TYPE":"PAYLOAD","APOAPSIS":"547.762","SEMIMAJOR_AXIS":"6925.344","RCS_SIZE":"LARGE","CLASSIFICATION_TYPE":"U","INCLINATION":"53.0537","TIME_SYSTEM":"UTC","TLE_LINE1":"1 45712U 20035BH  21244.49794843  .00000731  00000-0  67935-4 0  9995","TLE_LINE2":"2 45712  53.0537 244.6258 0000798  42.6399 317.4652 15.06401330 70022","ARG_OF_PERICENTER":"42.6399","MEAN_MOTION":"15.06401330","CENTER_NAME":"EARTH","SITE":"AFETR","ELEMENT_SET_NO":"999","REV_AT_EPOCH":"7002","MEAN_MOTION_DDOT":"0.0000000000000","OBJECT_NAME":"STARLINK-1434"},{"OBJECT_TYPE":"PAYLOAD","PERIOD":"95.592","EPOCH":"2021-09-01T12:26:13.733664","ECCENTRICITY":"0.00009370","SEMIMAJOR_AXIS":"6925.349","APOAPSIS":"547.863","ARG_OF_PERICENTER":"59.6306","TLE_LINE2":"2 45713  53.0546 264.5367 0000937  59.6306 300.4776 15.06399809 70145","TIME_SYSTEM":"UTC","TLE_LINE1":"1 45713U 20035BJ  21244.51821451  .00001071  00000-0  90755-4 0  9999","INCLINATION":"53.0546","CLASSIFICATION_TYPE":"U","RCS_SIZE":"LARGE","OBJECT_NAME":"STARLINK-1436","MEAN_MOTION_DDOT":"0.0000000000000","ELEMENT_SET_NO":"999","REV_AT_EPOCH":"7014","CENTER_NAME":"EARTH","SITE":"AFETR","MEAN_MOTION":"15.06399809","MEAN_ANOMALY":"300.4776","RA_OF_ASC_NODE":"264.5367","PERIAPSIS":"546.565","OBJECT_ID":"2020-035BJ","NORAD_CAT_ID":"45713","EPHEMERIS_TYPE":"0","DECAY_DATE":null,"GP_ID":"183875659","BSTAR":"0.00009075500000","COUNTRY_CODE":"US","MEAN_ELEMENT_THEORY":"SGP4","REF_FRAME":"TEME","FILE":"3106942","MEAN_MOTION_DOT":"0.00001071","LAUNCH_DATE":"2020-06-04"},{"APOAPSIS":"547.761","SEMIMAJOR_AXIS":"6925.378","EPOCH":"2021-09-01T12:12:59.480928","ECCENTRICITY":"0.00007480","OBJECT_TYPE":"PAYLOAD","PERIOD":"95.593","MEAN_MOTION":"15.06390281","ELEMENT_SET_NO":"999","REV_AT_EPOCH":"7043","CENTER_NAME":"EARTH","SITE":"AFETR","OBJECT_NAME":"STARLINK-1437","MEAN_MOTION_DDOT":"0.0000000000000","RCS_SIZE":"LARGE","TLE_LINE1":"1 45714U 20035BK  21244.50902177  .00000591  00000-0  58566-4 0  9994","TIME_SYSTEM":"UTC","CLASSIFICATION_TYPE":"U","INCLINATION":"53.0549","ARG_OF_PERICENTER":"60.2141","TLE_LINE2":"2 45714  53.0549 244.5767 0000748  60.2141 299.8922 15.06390281 70437","EPHEMERIS_TYPE":"0","DECAY_DATE":null,"OBJECT_ID":"2020-035BK","NORAD_CAT_ID":"45714","PERIAPSIS":"546.725","RA_OF_ASC_NODE":"244.5767","MEAN_ANOMALY":"299.8922","LAUNCH_DATE":"2020-06-04","MEAN_MOTION_DOT":"0.00000591","REF_FRAME":"TEME","FILE":"3106942","COUNTRY_CODE":"US","MEAN_ELEMENT_THEORY":"SGP4","BSTAR":"0.00005856600000","GP_ID":"183874923"},{"APOAPSIS":"408.733","SEMIMAJOR_AXIS":"6782.015","EPOCH":"2021-09-01T21:23:50.855712","ECCENTRICITY":"0.00071550","OBJECT_TYPE":"PAYLOAD","PERIOD":"92.640","MEAN_MOTION":"15.54406575","REV_AT_EPOCH":"7220","ELEMENT_SET_NO":"999","CENTER_NAME":"EARTH","SITE":"AFETR","OBJECT_NAME":"STARLINK-1439","MEAN_MOTION_DDOT":"0.0000000000000","RCS_SIZE":"LARGE","TIME_SYSTEM":"UTC","TLE_LINE1":"1 45716U 20035BM  21244.89156083  .00063514  00000-0  94964-3 0  9990","CLASSIFICATION_TYPE":"U","INCLINATION":"52.9960","ARG_OF_PERICENTER":"174.6392","TLE_LINE2":"2 45716  52.9960 119.8762 0007155 174.6392 185.4695 15.54406575 72201","EPHEMERIS_TYPE":"0","DECAY_DATE":null,"OBJECT_ID":"2020-035BM","NORAD_CAT_ID":"45716","PERIAPSIS":"399.028","RA_OF_ASC_NODE":"119.8762","MEAN_ANOMALY":"185.4695","LAUNCH_DATE":"2020-06-04","MEAN_MOTION_DOT":"0.00063514","REF_FRAME":"TEME","FILE":"3107096","COUNTRY_CODE":"US","MEAN_ELEMENT_THEORY":"SGP4","BSTAR":"0.00094964000000","GP_ID":"183925190"},{"RCS_SIZE":"LARGE","TLE_LINE2":"2 45730  53.0537  83.0300 0001806  93.8417 266.2778 15.06379376 67531","ARG_OF_PERICENTER":"93.8417","INCLINATION":"53.0537","CLASSIFICATION_TYPE":"U","TIME_SYSTEM":"UTC","TLE_LINE1":"1 45730U 20038A   21244.85182513  .00001123  00000-0  94366-4 0  9997","MEAN_MOTION":"15.06379376","MEAN_MOTION_DDOT":"0.0000000000000","OBJECT_NAME":"STARLINK-1461","CENTER_NAME":"EARTH","SITE":"AFETR","REV_AT_EPOCH":"6753","ELEMENT_SET_NO":"999","ECCENTRICITY":"0.00018060","EPOCH":"2021-09-01T20:26:37.691232","OBJECT_TYPE":"PAYLOAD","PERIOD":"95.593","APOAPSIS":"548.527","SEMIMAJOR_AXIS":"6925.412","MEAN_ELEMENT_THEORY":"SGP4","COUNTRY_CODE":"US","GP_ID":"183925440","BSTAR":"0.00009436600000","LAUNCH_DATE":"2020-06-13","FILE":"3107096","REF_FRAME":"TEME","MEAN_MOTION_DOT":"0.00001123","PERIAPSIS":"546.026","MEAN_ANOMALY":"266.2778","RA_OF_ASC_NODE":"83.0300","DECAY_DATE":null,"EPHEMERIS_TYPE":"0","NORAD_CAT_ID":"45730","OBJECT_ID":"2020-038A"},{"COUNTRY_CODE":"US","MEAN_ELEMENT_THEORY":"SGP4","BSTAR":"0.00010277000000","GP_ID":"183926193","LAUNCH_DATE":"2020-06-13","MEAN_MOTION_DOT":"0.00001249","REF_FRAME":"TEME","FILE":"3107096","PERIAPSIS":"546.095","RA_OF_ASC_NODE":"82.9743","MEAN_ANOMALY":"256.5598","EPHEMERIS_TYPE":"0","DECAY_DATE":null,"OBJECT_ID":"2020-038B","NORAD_CAT_ID":"45731","RCS_SIZE":"LARGE","TLE_LINE1":"1 45731U 20038B   21244.86653660  .00001249  00000-0  10277-3 0  9992","TIME_SYSTEM":"UTC","INCLINATION":"53.0562","CLASSIFICATION_TYPE":"U","ARG_OF_PERICENTER":"103.5572","TLE_LINE2":"2 45731  53.0562  82.9743 0001624 103.5572 256.5598 15.06397871 67529","MEAN_MOTION":"15.06397871","REV_AT_EPOCH":"6752","ELEMENT_SET_NO":"999","CENTER_NAME":"EARTH","SITE":"AFETR","OBJECT_NAME":"STARLINK-1465","MEAN_MOTION_DDOT":"0.0000000000000","EPOCH":"2021-09-01T20:47:48.762240","ECCENTRICITY":"0.00016240","OBJECT_TYPE":"PAYLOAD","PERIOD":"95.592","APOAPSIS":"548.345","SEMIMAJOR_AXIS":"6925.355"},{"MEAN_ELEMENT_THEORY":"SGP4","COUNTRY_CODE":"US","BSTAR":"0.00012260000000","GP_ID":"183924442","LAUNCH_DATE":"2020-06-13","MEAN_MOTION_DOT":"0.00001544","FILE":"3107096","REF_FRAME":"TEME","PERIAPSIS":"545.798","RA_OF_ASC_NODE":"83.0144","MEAN_ANOMALY":"275.9666","DECAY_DATE":null,"EPHEMERIS_TYPE":"0","NORAD_CAT_ID":"45732","OBJECT_ID":"2020-038C","RCS_SIZE":"LARGE","INCLINATION":"53.0542","CLASSIFICATION_TYPE":"U","TIME_SYSTEM":"UTC","TLE_LINE1":"1 45732U 20038C   21244.85549843  .00001544  00000-0  12260-3 0  9991","TLE_LINE2":"2 45732  53.0542  83.0144 0002093  84.1562 275.9666 15.06388977 67527","ARG_OF_PERICENTER":"84.1562","MEAN_MOTION":"15.06388977","SITE":"AFETR","CENTER_NAME":"EARTH","ELEMENT_SET_NO":"999","REV_AT_EPOCH":"6752","MEAN_MOTION_DDOT":"0.0000000000000","OBJECT_NAME":"STARLINK-1466","ECCENTRICITY":"0.00020930","EPOCH":"2021-09-01T20:31:55.064352","PERIOD":"95.593","OBJECT_TYPE":"PAYLOAD","APOAPSIS":"548.697","SEMIMAJOR_AXIS":"6925.382"},{"PERIOD":"95.593","OBJECT_TYPE":"PAYLOAD","ECCENTRICITY":"0.00018140","EPOCH":"2021-09-01T20:42:33.172416","SEMIMAJOR_AXIS":"6925.404","APOAPSIS":"548.526","TLE_LINE2":"2 45733  53.0550  82.9860 0001814  93.6913 266.4283 15.06381783 67523","ARG_OF_PERICENTER":"93.6913","INCLINATION":"53.0550","CLASSIFICATION_TYPE":"U","TLE_LINE1":"1 45733U 20038D   21244.86288394  .00001594  00000-0  12595-3 0  9990","TIME_SYSTEM":"UTC","RCS_SIZE":"LARGE","MEAN_MOTION_DDOT":"0.0000000000000","OBJECT_NAME":"STARLINK-1467","CENTER_NAME":"EARTH","SITE":"AFETR","REV_AT_EPOCH":"6752","ELEMENT_SET_NO":"999","MEAN_MOTION":"15.06381783","MEAN_ANOMALY":"266.4283","RA_OF_ASC_NODE":"82.9860","PERIAPSIS":"546.013","NORAD_CAT_ID":"45733","OBJECT_ID":"2020-038D","DECAY_DATE":null,"EPHEMERIS_TYPE":"0","GP_ID":"183925191","BSTAR":"0.00012595000000","MEAN_ELEMENT_THEORY":"SGP4","COUNTRY_CODE":"US","FILE":"3107096","REF_FRAME":"TEME","MEAN_MOTION_DOT":"0.00001594","LAUNCH_DATE":"2020-06-13"}];
